NAVSTAR 77 (USA 289)    
1 43873U 18109A   24026.44695800 -.00000018  00000+0  00000+0 0  9992
2 43873  55.2426 126.6695 0028497 192.8095 132.7037  2.00573433 37561
